OBJECT_NAME,OBJECT_ID,EPOCH,MEAN_MOTION,ECCENTRICITY,INCLINATION,RA_OF_ASC_NODE,ARG_OF_PERICENTER,MEAN_ANOMALY,EPHEMERIS_TYPE,CLASSIFICATION_TYPE,NORAD_CAT_ID,ELEMENT_SET_NO,REV_AT_EPOCH,BSTAR,MEAN_MOTION_DOT,MEAN_MOTION_DDOT
IRIDIUM 156,2018-061H,2026-06-16T18:26:46.491360,14.34217036,.0002068,86.3961,56.9044,82.9004,277.2427,0,U,43576,999,41331,.50555E-4,.161E-5,0
IRIDIUM 164,2018-061J,2026-06-16T17:59:22.310592,14.34218750,.000212,86.3960,56.9527,89.3099,270.8340,0,U,43577,999,41335,.38906E-4,.129E-5,0
IRIDIUM 159,2018-061K,2026-06-16T17:13:42.525120,14.34217620,.0002278,86.3961,56.9029,83.8683,276.2773,0,U,43578,999,41331,.14399E-4,.6E-6,0
IRIDIUM 180,2019-002A,2026-06-16T18:53:26.849184,14.34217765,.0002319,86.3967,353.7645,88.7926,271.3536,0,U,43922,999,38893,.59549E-4,.187E-5,0
IRIDIUM 176,2019-002B,2026-06-16T18:01:37.803072,14.72266539,.0002271,86.6090,353.7234,92.3842,267.7635,0,U,43923,999,39918,.95371E-4,.626E-5,0
IRIDIUM 168,2019-002C,2026-06-16T18:44:18.782880,14.34218427,.0002167,86.3974,353.8448,89.1086,271.0358,0,U,43924,999,38891,.1288E-4,.56E-6,0
IRIDIUM 173,2019-002D,2026-06-16T18:26:02.868864,14.34216242,.0002131,86.3970,353.7391,86.6140,273.5299,0,U,43925,999,38889,.43128E-4,.141E-5,0
IRIDIUM 169,2019-002E,2026-06-16T20:02:16.181664,14.38608868,.0001866,86.4225,25.3407,72.6176,287.5226,0,U,43926,999,39017,.69559E-4,.233E-5,0
IRIDIUM 172,2019-002F,2026-06-16T13:15:30.816000,14.34218289,.0002245,86.3969,353.8371,88.6934,271.4519,0,U,43927,999,38887,.42829E-4,.14E-5,0
IRIDIUM 175,2019-002G,2026-06-16T20:38:20.054112,14.43612541,.0002451,86.4512,290.6577,179.9701,180.1500,0,U,43928,999,39893,.73253E-4,.268E-5,0
IRIDIUM 171,2019-002H,2026-06-16T19:29:58.869024,14.34218101,.0002042,86.3979,354.0345,90.6946,269.4484,0,U,43929,999,38890,.42771E-4,.14E-5,0
IRIDIUM 170,2019-002J,2026-06-16T18:10:31.813824,14.72266997,.0002349,86.6091,353.7232,88.9568,271.1919,0,U,43930,999,39919,.94872E-4,.623E-5,0
IRIDIUM 167,2019-002K,2026-06-16T14:19:26.844672,14.34217653,.0001766,86.3966,353.8409,91.4531,268.6867,0,U,43931,999,38887,-.21886E-5,.14E-6,0
IRIDIUM 181,2023-068S,2026-06-16T18:14:07.240128,14.43312262,.0002359,86.4499,56.9692,88.7701,271.3770,0,U,56726,999,16237,.77633E-4,.281E-5,0
IRIDIUM 177,2023-068T,2026-06-16T20:23:05.308800,14.80224328,.0002342,86.1963,328.9512,87.5375,272.6114,0,U,56727,999,16631,.11517E-3,.902E-5,0
IRIDIUM 174,2023-068U,2026-06-16T12:59:08.733984,14.72263140,.00024626,86.6098,353.9611,84.0328,276.1170,0,U,56728,999,16592,.99228168E-4,.65E-5,0
IRIDIUM 178,2023-068V,2026-06-16T13:38:03.198912,14.80232761,.0002634,86.6538,25.6190,85.9533,274.1990,0,U,56729,999,16627,.10126E-3,.796E-5,0
IRIDIUM 179,2023-068W,2026-06-16T21:37:00.550848,14.80230488,.0002447,86.6781,34.4600,89.3538,270.7964,0,U,56730,999,16632,.91212E-4,.719E-5,0
