IRIDIUM 156             
1 43576U 18061H   26167.76859365  .00000161  00000+0  50555-4 0  9993
2 43576  86.3961  56.9044 0002068  82.9004 277.2427 14.34217036413311
IRIDIUM 164             
1 43577U 18061J   26167.74956378  .00000129  00000+0  38906-4 0  9994
2 43577  86.3960  56.9527 0002120  89.3099 270.8340 14.34218750413352
IRIDIUM 159             
1 43578U 18061K   26167.71785330  .00000060  00000+0  14399-4 0  9994
2 43578  86.3961  56.9029 0002278  83.8683 276.2773 14.34217620413314
IRIDIUM 180             
1 43922U 19002A   26167.78711631  .00000187  00000+0  59549-4 0  9999
2 43922  86.3967 353.7645 0002319  88.7926 271.3536 14.34217765388937
IRIDIUM 176             
1 43923U 19002B   26167.75113198  .00000626  00000+0  95371-4 0  9992
2 43923  86.6090 353.7234 0002271  92.3842 267.7635 14.72266539399180
IRIDIUM 168             
1 43924U 19002C   26167.78077295  .00000056  00000+0  12880-4 0  9994
2 43924  86.3974 353.8448 0002167  89.1086 271.0358 14.34218427388915
IRIDIUM 173             
1 43925U 19002D   26167.76808876  .00000141  00000+0  43128-4 0  9994
2 43925  86.3970 353.7391 0002131  86.6140 273.5299 14.34216242388893
IRIDIUM 169             
1 43926U 19002E   26167.83490951  .00000233  00000+0  69559-4 0  9992
2 43926  86.4225  25.3407 0001866  72.6176 287.5226 14.38608868390178
IRIDIUM 172             
1 43927U 19002F   26167.55244000  .00000140  00000+0  42829-4 0  9992
2 43927  86.3969 353.8371 0002245  88.6934 271.4519 14.34218289388874
IRIDIUM 175             
1 43928U 19002G   26167.85995433  .00000268  00000+0  73253-4 0  9995
2 43928  86.4512 290.6577 0002451 179.9701 180.1500 14.43612541398934
IRIDIUM 171             
1 43929U 19002H   26167.81248691  .00000140  00000+0  42771-4 0  9999
2 43929  86.3979 354.0345 0002042  90.6946 269.4484 14.34218101388907
IRIDIUM 170             
1 43930U 19002J   26167.75731266  .00000623  00000+0  94872-4 0  9994
2 43930  86.6091 353.7232 0002349  88.9568 271.1919 14.72266997399192
IRIDIUM 167             
1 43931U 19002K   26167.59683848  .00000014  00000+0 -21886-5 0  9990
2 43931  86.3966 353.8409 0001766  91.4531 268.6867 14.34217653388878
IRIDIUM 181             
1 56726U 23068S   26167.75980602  .00000281  00000+0  77633-4 0  9994
2 56726  86.4499  56.9692 0002359  88.7701 271.3770 14.43312262162379
IRIDIUM 177             
1 56727U 23068T   26167.84936700  .00000902  00000+0  11517-3 0  9993
2 56727  86.1963 328.9512 0002342  87.5375 272.6114 14.80224328166312
IRIDIUM 174             
1 56728U 23068U   26167.54107331  .00000650  00000+0  99228-4 0  9997
2 56728  86.6098 353.9611 0002462  84.0328 276.1170 14.72263140165921
IRIDIUM 178             
1 56729U 23068V   26167.56809258  .00000796  00000+0  10126-3 0  9997
2 56729  86.6538  25.6190 0002634  85.9533 274.1990 14.80232761166276
IRIDIUM 179             
1 56730U 23068W   26167.90070082  .00000719  00000+0  91212-4 0  9993
2 56730  86.6781  34.4600 0002447  89.3538 270.7964 14.80230488166320
